{
  "norad_id": 67566,
  "name": "STARLINK-36394",
  "history": [
    {
      "epoch": "2026-03-28T22:00:01.999584Z",
      "apogee_km": 453.0071911905852,
      "perigee_km": 450.1445853305995,
      "latitude_deg": -31.835908461243665,
      "longitude_deg": 168.1790090423483,
      "height_km": 464.79036548530945,
      "semi_major_axis_km": 6829.712888260592,
      "eccentricity": 0.00020957,
      "inclination_deg": 97.2847,
      "raan_deg": 149.0447,
      "arg_perigee_deg": 69.2129,
      "mean_anomaly_deg": 142.6248,
      "mean_motion_rev_day": 15.38151423
    },
    {
      "epoch": "2026-03-29T04:00:01.999584Z",
      "apogee_km": 455.95370901751176,
      "perigee_km": 453.40643481310053,
      "latitude_deg": 24.979376440274194,
      "longitude_deg": 86.10284851335858,
      "height_km": 457.9357802837697,
      "semi_major_axis_km": 6832.817071915306,
      "eccentricity": 0.0001864,
      "inclination_deg": 97.2844,
      "raan_deg": 149.2928,
      "arg_perigee_deg": 62.0821,
      "mean_anomaly_deg": 92.7304,
      "mean_motion_rev_day": 15.37103357
    },
    {
      "epoch": "2026-03-30T04:00:01.999584Z",
      "apogee_km": 466.65514868270384,
      "perigee_km": 465.0440742343653,
      "latitude_deg": -79.73539976849777,
      "longitude_deg": -52.70120387444331,
      "height_km": 494.2819884637229,
      "semi_major_axis_km": 6843.986611458534,
      "eccentricity": 0.0001177,
      "inclination_deg": 97.2856,
      "raan_deg": 150.2748,
      "arg_perigee_deg": 34.3212,
      "mean_anomaly_deg": 243.0427,
      "mean_motion_rev_day": 15.33342012
    },
    {
      "epoch": "2026-03-30T14:00:03.000384Z",
      "apogee_km": 466.5971768239542,
      "perigee_km": 464.9175482694982,
      "latitude_deg": 55.44597186237958,
      "longitude_deg": 102.06190344783886,
      "height_km": 474.19332851333724,
      "semi_major_axis_km": 6843.8943625467255,
      "eccentricity": 0.00012271,
      "inclination_deg": 97.2845,
      "raan_deg": 150.6846,
      "arg_perigee_deg": 45.0626,
      "mean_anomaly_deg": 10.9561,
      "mean_motion_rev_day": 15.33373014
    },
    {
      "epoch": "2026-03-30T22:00:00.999936Z",
      "apogee_km": 466.5013978201314,
      "perigee_km": 464.61445425512375,
      "latitude_deg": 81.31803803424992,
      "longitude_deg": -130.93219683480766,
      "height_km": 478.4898746164214,
      "semi_major_axis_km": 6843.694926037628,
      "eccentricity": 0.00013786,
      "inclination_deg": 97.2848,
      "raan_deg": 151.014,
      "arg_perigee_deg": 39.707,
      "mean_anomaly_deg": 55.097,
      "mean_motion_rev_day": 15.33440042
    },
    {
      "epoch": "2026-03-31T20:00:01.999008Z",
      "apogee_km": 466.3792857722765,
      "perigee_km": 464.625945302776,
      "latitude_deg": 66.94654044205792,
      "longitude_deg": -139.91557390642689,
      "height_km": 476.66930210592534,
      "semi_major_axis_km": 6843.639615537526,
      "eccentricity": 0.0001281,
      "inclination_deg": 97.2844,
      "raan_deg": 151.9183,
      "arg_perigee_deg": 51.8619,
      "mean_anomaly_deg": 60.1505,
      "mean_motion_rev_day": 15.33458632
    },
    {
      "epoch": "2026-04-01T20:00:01.999008Z",
      "apogee_km": 466.07353277468155,
      "perigee_km": 464.9210647587688,
      "latitude_deg": -48.5585504676952,
      "longitude_deg": -165.5735889435142,
      "height_km": 484.96071132647137,
      "semi_major_axis_km": 6843.634298766725,
      "eccentricity": 8.42e-05,
      "inclination_deg": 97.2847,
      "raan_deg": 152.904,
      "arg_perigee_deg": 47.1511,
      "mean_anomaly_deg": 181.6702,
      "mean_motion_rev_day": 15.33460419
    },
    {
      "epoch": "2026-04-02T20:00:01.999008Z",
      "apogee_km": 466.023978769781,
      "perigee_km": 465.02891010496023,
      "latitude_deg": -14.447749737569008,
      "longitude_deg": 24.581335562861604,
      "height_km": 471.4868931353294,
      "semi_major_axis_km": 6843.66344443737,
      "eccentricity": 7.27e-05,
      "inclination_deg": 97.2846,
      "raan_deg": 153.8891,
      "arg_perigee_deg": 60.3556,
      "mean_anomaly_deg": 285.295,
      "mean_motion_rev_day": 15.33450623
    },
    {
      "epoch": "2026-04-02T22:00:01.999584Z",
      "apogee_km": 466.15337213077146,
      "perigee_km": 465.2295921622517,
      "latitude_deg": 81.44909034973112,
      "longitude_deg": -65.0153764537816,
      "height_km": 478.7112406024432,
      "semi_major_axis_km": 6843.828482146511,
      "eccentricity": 6.749e-05,
      "inclination_deg": 97.2844,
      "raan_deg": 153.9704,
      "arg_perigee_deg": 86.6935,
      "mean_anomaly_deg": 358.7329,
      "mean_motion_rev_day": 15.33395155
    },
    {
      "epoch": "2026-04-03T17:59:22.625952Z",
      "apogee_km": 467.093194817513,
      "perigee_km": 464.1599577487186,
      "latitude_deg": 2.10638174660917e-05,
      "longitude_deg": 52.8661142688743,
      "height_km": 468.1516997052202,
      "semi_major_axis_km": 6843.763576283116,
      "eccentricity": 0.0002143,
      "inclination_deg": 97.2821,
      "raan_deg": 154.7898,
      "arg_perigee_deg": 66.5515,
      "mean_anomaly_deg": 293.5953,
      "mean_motion_rev_day": 15.33416969
    },
    {
      "epoch": "2026-04-04T17:28:53.181984Z",
      "apogee_km": 466.0279602443725,
      "perigee_km": 464.92613838243324,
      "latitude_deg": 2.169294735654635e-05,
      "longitude_deg": 60.49012186553025,
      "height_km": 468.62025936415625,
      "semi_major_axis_km": 6843.614049313403,
      "eccentricity": 8.05e-05,
      "inclination_deg": 97.2838,
      "raan_deg": 155.7559,
      "arg_perigee_deg": 93.3697,
      "mean_anomaly_deg": 266.7638,
      "mean_motion_rev_day": 15.33467225
    },
    {
      "epoch": "2026-04-05T10:42:32.104224Z",
      "apogee_km": 466.2624518452203,
      "perigee_km": 464.86209409998446,
      "latitude_deg": 1.0366029591428116e-05,
      "longitude_deg": 162.07793885024006,
      "height_km": 468.6626879845665,
      "semi_major_axis_km": 6843.699272972603,
      "eccentricity": 0.00010231,
      "inclination_deg": 97.2837,
      "raan_deg": 156.4634,
      "arg_perigee_deg": 89.1803,
      "mean_anomaly_deg": 270.9557,
      "mean_motion_rev_day": 15.33438581
    },
    {
      "epoch": "2026-04-05T16:58:24.240000Z",
      "apogee_km": 466.24225588819627,
      "perigee_km": 464.8078243245909,
      "latitude_deg": 3.714476484847618e-05,
      "longitude_deg": 68.1105294383466,
      "height_km": 468.67153718452056,
      "semi_major_axis_km": 6843.662040106394,
      "eccentricity": 0.0001048,
      "inclination_deg": 97.2839,
      "raan_deg": 156.7205,
      "arg_perigee_deg": 92.884,
      "mean_anomaly_deg": 267.2523,
      "mean_motion_rev_day": 15.33451095
    },
    {
      "epoch": "2026-04-06T03:56:10.431168Z",
      "apogee_km": 466.30874285469326,
      "perigee_km": 464.70363478118725,
      "latitude_deg": -1.6797874511181886e-05,
      "longitude_deg": -96.33065530204321,
      "height_km": 469.0073754977224,
      "semi_major_axis_km": 6843.6431888179395,
      "eccentricity": 0.00011727,
      "inclination_deg": 97.2853,
      "raan_deg": 157.172,
      "arg_perigee_deg": 119.1305,
      "mean_anomaly_deg": 241.0055,
      "mean_motion_rev_day": 15.33457431
    },
    {
      "epoch": "2026-04-07T17:31:23.777184Z",
      "apogee_km": 465.79201443908823,
      "perigee_km": 465.2527340803963,
      "latitude_deg": -8.109816995905417e-05,
      "longitude_deg": 59.86189534835732,
      "height_km": 468.62620398691195,
      "semi_major_axis_km": 6843.659374259742,
      "eccentricity": 3.94e-05,
      "inclination_deg": 97.2822,
      "raan_deg": 158.7138,
      "arg_perigee_deg": 88.3701,
      "mean_anomaly_deg": 271.7586,
      "mean_motion_rev_day": 15.33451991
    },
    {
      "epoch": "2026-04-08T10:45:02.402208Z",
      "apogee_km": 466.1186441964783,
      "perigee_km": 464.8681760479403,
      "latitude_deg": 5.611634583248216e-05,
      "longitude_deg": 161.45253412718634,
      "height_km": 468.48535868549885,
      "semi_major_axis_km": 6843.630410122209,
      "eccentricity": 9.136e-05,
      "inclination_deg": 97.2846,
      "raan_deg": 159.4229,
      "arg_perigee_deg": 79.0596,
      "mean_anomaly_deg": 281.075,
      "mean_motion_rev_day": 15.33461726
    },
    {
      "epoch": "2026-04-09T21:12:19.864800Z",
      "apogee_km": 465.9792361269019,
      "perigee_km": 465.0662919143815,
      "latitude_deg": 1.6528200599848623e-06,
      "longitude_deg": 4.629265537052522,
      "height_km": 468.7124644566636,
      "semi_major_axis_km": 6843.659764020641,
      "eccentricity": 6.67e-05,
      "inclination_deg": 97.2855,
      "raan_deg": 160.8374,
      "arg_perigee_deg": 99.9274,
      "mean_anomaly_deg": 260.2044,
      "mean_motion_rev_day": 15.3345186
    },
    {
      "epoch": "2026-04-10T09:44:04.337664Z",
      "apogee_km": 466.06582332635753,
      "perigee_km": 465.0009482143323,
      "latitude_deg": -5.8691975086702284e-05,
      "longitude_deg": 176.69421972405462,
      "height_km": 468.6841482670815,
      "semi_major_axis_km": 6843.670385770345,
      "eccentricity": 7.78e-05,
      "inclination_deg": 97.2843,
      "raan_deg": 161.3522,
      "arg_perigee_deg": 94.2995,
      "mean_anomaly_deg": 265.8336,
      "mean_motion_rev_day": 15.3344829
    },
    {
      "epoch": "2026-04-11T02:57:42.937632Z",
      "apogee_km": 466.47437381546024,
      "perigee_km": 464.53529633790913,
      "latitude_deg": -8.474978069204699e-05,
      "longitude_deg": -81.71701549098414,
      "height_km": 468.8809421094305,
      "semi_major_axis_km": 6843.641835076684,
      "eccentricity": 0.00014167,
      "inclination_deg": 97.2869,
      "raan_deg": 162.0593,
      "arg_perigee_deg": 105.9374,
      "mean_anomaly_deg": 254.2024,
      "mean_motion_rev_day": 15.33457886
    }
  ]
}